[{"OBJECT_NAME":"JILIN GAOFEN OBJECT D","OBJECT_ID":"2026-080D","EPOCH":"2026-04-15T01:47:00.364128","MEAN_MOTION":15.09349528,"ECCENTRICITY":0.00142443,"INCLINATION":97.6682,"RA_OF_ASC_NODE":180.7187,"ARG_OF_PERICENTER":278.7346,"MEAN_ANOMALY":81.2269,"EPHEMERIS_TYPE":0,"CLASSIFICATION_TYPE":"U","NORAD_CAT_ID":68694,"ELEMENT_SET_NO":999,"REV_AT_EPOCH":12,"BSTAR":6.7430326e-5,"MEAN_MOTION_DOT":1.013e-5,"MEAN_MOTION_DDOT":0},{"OBJECT_NAME":"JILIN GAOFEN OBJECT E","OBJECT_ID":"2026-080E","EPOCH":"2026-04-19T06:01:12.396288","MEAN_MOTION":15.0939085,"ECCENTRICITY":0.00145956,"INCLINATION":97.6658,"RA_OF_ASC_NODE":184.8929,"ARG_OF_PERICENTER":262.7212,"MEAN_ANOMALY":97.2358,"EPHEMERIS_TYPE":0,"CLASSIFICATION_TYPE":"U","NORAD_CAT_ID":68695,"ELEMENT_SET_NO":999,"REV_AT_EPOCH":73,"BSTAR":5.7832887e-5,"MEAN_MOTION_DOT":8.6e-6,"MEAN_MOTION_DDOT":0},{"OBJECT_NAME":"JILIN GAOFEN OBJECT F","OBJECT_ID":"2026-080F","EPOCH":"2026-04-15T01:46:57.241632","MEAN_MOTION":15.09416186,"ECCENTRICITY":0.00136046,"INCLINATION":97.6631,"RA_OF_ASC_NODE":180.7184,"ARG_OF_PERICENTER":281.113,"MEAN_ANOMALY":78.8569,"EPHEMERIS_TYPE":0,"CLASSIFICATION_TYPE":"U","NORAD_CAT_ID":68696,"ELEMENT_SET_NO":999,"REV_AT_EPOCH":10,"BSTAR":6.7431773e-5,"MEAN_MOTION_DOT":1.014e-5,"MEAN_MOTION_DDOT":0},{"OBJECT_NAME":"JILIN GAOFEN OBJECT G","OBJECT_ID":"2026-080G","EPOCH":"2026-04-15T01:46:52.419648","MEAN_MOTION":15.09509936,"ECCENTRICITY":0.0014131,"INCLINATION":97.6672,"RA_OF_ASC_NODE":180.7171,"ARG_OF_PERICENTER":282.1232,"MEAN_ANOMALY":77.8414,"EPHEMERIS_TYPE":0,"CLASSIFICATION_TYPE":"U","NORAD_CAT_ID":68697,"ELEMENT_SET_NO":999,"REV_AT_EPOCH":10,"BSTAR":0.00016346539,"MEAN_MOTION_DOT":2.56e-5,"MEAN_MOTION_DDOT":0},{"OBJECT_NAME":"JILIN GAOFEN OBJECT H","OBJECT_ID":"2026-080H","EPOCH":"2026-04-15T01:46:50.341728","MEAN_MOTION":15.09549566,"ECCENTRICITY":0.00139304,"INCLINATION":97.6665,"RA_OF_ASC_NODE":180.7184,"ARG_OF_PERICENTER":282.9895,"MEAN_ANOMALY":76.9778,"EPHEMERIS_TYPE":0,"CLASSIFICATION_TYPE":"U","NORAD_CAT_ID":68698,"ELEMENT_SET_NO":999,"REV_AT_EPOCH":10,"BSTAR":6.7135772e-5,"MEAN_MOTION_DOT":1.014e-5,"MEAN_MOTION_DDOT":0},{"OBJECT_NAME":"2026-083A","OBJECT_ID":"2026-083A","EPOCH":"2026-04-20T04:25:08.527872","MEAN_MOTION":15.22010983,"ECCENTRICITY":0.00650701,"INCLINATION":98.2654,"RA_OF_ASC_NODE":255.78,"ARG_OF_PERICENTER":68.6358,"MEAN_ANOMALY":292.1803,"EPHEMERIS_TYPE":0,"CLASSIFICATION_TYPE":"U","NORAD_CAT_ID":68753,"ELEMENT_SET_NO":999,"REV_AT_EPOCH":50,"BSTAR":0.00015725031,"MEAN_MOTION_DOT":3.716e-5,"MEAN_MOTION_DDOT":0},{"OBJECT_NAME":"2026-083B","OBJECT_ID":"2026-083B","EPOCH":"2026-04-20T03:36:13.371264","MEAN_MOTION":15.06512858,"ECCENTRICITY":0.0008766,"INCLINATION":98.2514,"RA_OF_ASC_NODE":255.6167,"ARG_OF_PERICENTER":250.9023,"MEAN_ANOMALY":109.1253,"EPHEMERIS_TYPE":0,"CLASSIFICATION_TYPE":"U","NORAD_CAT_ID":68754,"ELEMENT_SET_NO":999,"REV_AT_EPOCH":48,"BSTAR":0.00013500233,"MEAN_MOTION_DOT":1.924e-5,"MEAN_MOTION_DDOT":0},{"OBJECT_NAME":"2026-083D","OBJECT_ID":"2026-083D","EPOCH":"2026-04-20T05:37:54.534144","MEAN_MOTION":15.31393234,"ECCENTRICITY":0.00134381,"INCLINATION":96.9051,"RA_OF_ASC_NODE":251.2001,"ARG_OF_PERICENTER":260.5351,"MEAN_ANOMALY":99.4373,"EPHEMERIS_TYPE":0,"CLASSIFICATION_TYPE":"U","NORAD_CAT_ID":68756,"ELEMENT_SET_NO":999,"REV_AT_EPOCH":49,"BSTAR":0.00017441349,"MEAN_MOTION_DOT":5.231e-5,"MEAN_MOTION_DDOT":0},{"OBJECT_NAME":"2026-083E","OBJECT_ID":"2026-083E","EPOCH":"2026-04-17T03:50:04.293888","MEAN_MOTION":15.23009713,"ECCENTRICITY":0.00617028,"INCLINATION":98.2473,"RA_OF_ASC_NODE":252.4151,"ARG_OF_PERICENTER":80.1499,"MEAN_ANOMALY":280.6695,"EPHEMERIS_TYPE":0,"CLASSIFICATION_TYPE":"U","NORAD_CAT_ID":68757,"ELEMENT_SET_NO":999,"REV_AT_EPOCH":3,"BSTAR":6.3260824e-5,"MEAN_MOTION_DOT":1.477e-5,"MEAN_MOTION_DDOT":0},{"OBJECT_NAME":"2026-083F","OBJECT_ID":"2026-083F","EPOCH":"2026-04-20T05:11:55.512672","MEAN_MOTION":15.06565827,"ECCENTRICITY":0.00102237,"INCLINATION":96.9507,"RA_OF_ASC_NODE":250.1899,"ARG_OF_PERICENTER":246.261,"MEAN_ANOMALY":113.7547,"EPHEMERIS_TYPE":0,"CLASSIFICATION_TYPE":"U","NORAD_CAT_ID":68758,"ELEMENT_SET_NO":999,"REV_AT_EPOCH":47,"BSTAR":0.00010351994,"MEAN_MOTION_DOT":1.48e-5,"MEAN_MOTION_DDOT":0},{"OBJECT_NAME":"2026-083G","OBJECT_ID":"2026-083G","EPOCH":"2026-04-20T05:11:48.384672","MEAN_MOTION":15.06607439,"ECCENTRICITY":0.00104078,"INCLINATION":96.9511,"RA_OF_ASC_NODE":250.1927,"ARG_OF_PERICENTER":246.2808,"MEAN_ANOMALY":113.7329,"EPHEMERIS_TYPE":0,"CLASSIFICATION_TYPE":"U","NORAD_CAT_ID":68759,"ELEMENT_SET_NO":999,"REV_AT_EPOCH":46,"BSTAR":0.00010326373,"MEAN_MOTION_DOT":1.478e-5,"MEAN_MOTION_DDOT":0},{"OBJECT_NAME":"DAQI-2","OBJECT_ID":"2026-084A","EPOCH":"2026-04-19T03:15:08.628192","MEAN_MOTION":14.61978622,"ECCENTRICITY":0.0004852,"INCLINATION":98.2883,"RA_OF_ASC_NODE":183.5451,"ARG_OF_PERICENTER":219.7145,"MEAN_ANOMALY":140.3701,"EPHEMERIS_TYPE":0,"CLASSIFICATION_TYPE":"U","NORAD_CAT_ID":68760,"ELEMENT_SET_NO":999,"REV_AT_EPOCH":29,"BSTAR":1.5616e-5,"MEAN_MOTION_DOT":3.0e-7,"MEAN_MOTION_DDOT":0},{"OBJECT_NAME":"2026-083H","OBJECT_ID":"2026-083H","EPOCH":"2026-04-20T05:11:19.728384","MEAN_MOTION":15.06775073,"ECCENTRICITY":0.00111393,"INCLINATION":96.9506,"RA_OF_ASC_NODE":250.1899,"ARG_OF_PERICENTER":246.5633,"MEAN_ANOMALY":113.4426,"EPHEMERIS_TYPE":0,"CLASSIFICATION_TYPE":"U","NORAD_CAT_ID":68762,"ELEMENT_SET_NO":999,"REV_AT_EPOCH":47,"BSTAR":0.00010554712,"MEAN_MOTION_DOT":1.519e-5,"MEAN_MOTION_DDOT":0},{"OBJECT_NAME":"2026-083J","OBJECT_ID":"2026-083J","EPOCH":"2026-04-20T05:11:12.183072","MEAN_MOTION":15.06819,"ECCENTRICITY":0.00113324,"INCLINATION":96.951,"RA_OF_ASC_NODE":250.1928,"ARG_OF_PERICENTER":246.5079,"MEAN_ANOMALY":113.496,"EPHEMERIS_TYPE":0,"CLASSIFICATION_TYPE":"U","NORAD_CAT_ID":68763,"ELEMENT_SET_NO":999,"REV_AT_EPOCH":47,"BSTAR":0.00010257135,"MEAN_MOTION_DOT":1.476e-5,"MEAN_MOTION_DDOT":0},{"OBJECT_NAME":"2026-083K","OBJECT_ID":"2026-083K","EPOCH":"2026-04-20T05:11:02.774976","MEAN_MOTION":15.06874216,"ECCENTRICITY":0.0010686,"INCLINATION":96.9509,"RA_OF_ASC_NODE":250.1921,"ARG_OF_PERICENTER":242.4735,"MEAN_ANOMALY":117.5409,"EPHEMERIS_TYPE":0,"CLASSIFICATION_TYPE":"U","NORAD_CAT_ID":68764,"ELEMENT_SET_NO":999,"REV_AT_EPOCH":47,"BSTAR":0.00010596721,"MEAN_MOTION_DOT":1.529e-5,"MEAN_MOTION_DDOT":0},{"OBJECT_NAME":"SPACEMOBILE-007","OBJECT_ID":"2026-085A","EPOCH":"2026-04-20T03:43:22.378368","MEAN_MOTION":15.64310274,"ECCENTRICITY":0.01625818,"INCLINATION":42.9612,"RA_OF_ASC_NODE":171.3926,"ARG_OF_PERICENTER":193.6002,"MEAN_ANOMALY":166.0453,"EPHEMERIS_TYPE":0,"CLASSIFICATION_TYPE":"U","NORAD_CAT_ID":68765,"ELEMENT_SET_NO":999,"REV_AT_EPOCH":11,"BSTAR":0.00017840325,"MEAN_MOTION_DOT":0.00033684,"MEAN_MOTION_DDOT":8.119271e-6}]
