JILIN GAOFEN OBJECT D   
1 68694U 26080D   26105.07430977  .00001013  00000+0  67430-4 0  9998
2 68694  97.6682 180.7187 0014244 278.7346  81.2269 15.09349528   124
JILIN GAOFEN OBJECT E   
1 68695U 26080E   26109.25083792  .00000860  00000+0  57833-4 0  9997
2 68695  97.6658 184.8929 0014595 262.7212  97.2358 15.09390850   738
JILIN GAOFEN OBJECT F   
1 68696U 26080F   26105.07427363  .00001014  00000+0  67432-4 0  9998
2 68696  97.6631 180.7184 0013604 281.1130  78.8569 15.09416186   103
JILIN GAOFEN OBJECT G   
1 68697U 26080G   26105.07421782  .00002560  00000+0  16347-3 0  9993
2 68697  97.6672 180.7171 0014131 282.1232  77.8414 15.09509936   109
JILIN GAOFEN OBJECT H   
1 68698U 26080H   26105.07419377  .00001014  00000+0  67136-4 0  9997
2 68698  97.6665 180.7184 0013930 282.9895  76.9778 15.09549566   101
2026-083A               
1 68753U 26083A   26110.18412648  .00003716  00000+0  15725-3 0  9991
2 68753  98.2654 255.7800 0065070  68.6358 292.1803 15.22010983   507
2026-083B               
1 68754U 26083B   26110.15015476  .00001924  00000+0  13500-3 0  9995
2 68754  98.2514 255.6167 0008766 250.9023 109.1253 15.06512858   485
2026-083D               
1 68756U 26083D   26110.23465896  .00005231  00000+0  17441-3 0  9994
2 68756  96.9051 251.2001 0013438 260.5351  99.4373 15.31393234   498
2026-083E               
1 68757U 26083E   26107.15977192  .00001477  00000+0  63261-4 0  9999
2 68757  98.2473 252.4151 0061702  80.1499 280.6695 15.23009713    35
2026-083F               
1 68758U 26083F   26110.21661473  .00001480  00000+0  10352-3 0  9999
2 68758  96.9507 250.1899 0010223 246.2610 113.7547 15.06565827   479
2026-083G               
1 68759U 26083G   26110.21653223  .00001478  00000+0  10326-3 0  9992
2 68759  96.9511 250.1927 0010407 246.2808 113.7329 15.06607439   463
DAQI-2                  
1 68760U 26084A   26109.13551653  .00000030  00000+0  15616-4 0  9999
2 68760  98.2883 183.5451 0004852 219.7145 140.3701 14.61978622   295
2026-083H               
1 68762U 26083H   26110.21620056  .00001519  00000+0  10555-3 0  9994
2 68762  96.9506 250.1899 0011139 246.5633 113.4426 15.06775073   477
2026-083J               
1 68763U 26083J   26110.21611323  .00001476  00000+0  10257-3 0  9993
2 68763  96.9510 250.1928 0011332 246.5079 113.4960 15.06819000   477
2026-083K               
1 68764U 26083K   26110.21600434  .00001529  00000+0  10597-3 0  9991
2 68764  96.9509 250.1921 0010686 242.4735 117.5409 15.06874216   477
SPACEMOBILE-007         
1 68765U 26085A   26110.15512012  .00033684  81193-5  17840-3 0  9994
2 68765  42.9612 171.3926 0162581 193.6002 166.0453 15.64310274   111
